[
    {
        "Altitude(m)": 607886.726736931,
        "Argument of Periapsis(deg)": 0.0,
        "Eccentricity": 0.0,
        "Inclination(deg)": 60.0,
        "Latitude(deg)": 40.99853923785776,
        "Longitude(deg)": 149.97301943936336,
        "Mean Anomaly(deg)": 49.09089999999999,
        "RAAN(deg)": 220.00000000000003,
        "Satellite Name": "Test1 971",
        "Satellite Number": 971,
        "Semi-Major Axis(m)": 6980739.136638005,
        "Time(s)": 0
    },
    {
        "Altitude(m)": 607987.6407036764,
        "Argument of Periapsis(deg)": 0.00010418945913296404,
        "Eccentricity": 0.0,
        "Inclination(deg)": 60.0,
        "Latitude(deg)": 41.463628894223994,
        "Longitude(deg)": 150.47724870621389,
        "Mean Anomaly(deg)": 49.711006145461845,
        "RAAN(deg)": 219.99957995086027,
        "Satellite Name": "Test1 971",
        "Satellite Number": 971,
        "Semi-Major Axis(m)": 6980739.136638005,
        "Time(s)": 10
    }
]